[{
    "OBJECT_NAME": "COSMOS 2251 DEB",
    "OBJECT_ID": "1993-036BEW",
    "EPOCH": "2025-11-16T07:44:23.151552",
    "MEAN_MOTION": 14.42989212,
    "ECCENTRICITY": 0.00313243,
    "INCLINATION": 74.0028,
    "RA_OF_ASC_NODE": 341.5316,
    "ARG_OF_PERICENTER": 97.8177,
    "MEAN_ANOMALY": 262.6537,
    "EPHEMERIS_TYPE": 0,
    "CLASSIFICATION_TYPE": "U",
    "NORAD_CAT_ID": 36632,
    "ELEMENT_SET_NO": 999,
    "REV_AT_EPOCH": 64834,
    "BSTAR": 0.0010204345,
    "MEAN_MOTION_DOT": 3.411e-5,
    "MEAN_MOTION_DDOT": 0
},{
    "OBJECT_NAME": "COSMOS 2251 DEB",
    "OBJECT_ID": "1993-036BFE",
    "EPOCH": "2025-11-18T09:40:29.170560",
    "MEAN_MOTION": 15.00533216,
    "ECCENTRICITY": 0.00986255,
    "INCLINATION": 74.0286,
    "RA_OF_ASC_NODE": 210.9985,
    "ARG_OF_PERICENTER": 297.2683,
    "MEAN_ANOMALY": 61.8484,
    "EPHEMERIS_TYPE": 0,
    "CLASSIFICATION_TYPE": "U",
    "NORAD_CAT_ID": 37084,
    "ELEMENT_SET_NO": 999,
    "REV_AT_EPOCH": 65902,
    "BSTAR": 0.00051175737,
    "MEAN_MOTION_DOT": 7.119e-5,
    "MEAN_MOTION_DDOT": 0
},{
    "OBJECT_NAME": "COSMOS 2251 DEB",
    "OBJECT_ID": "1993-036BFF",
    "EPOCH": "2025-11-15T05:13:29.712000",
    "MEAN_MOTION": 15.35612899,
    "ECCENTRICITY": 0.00232176,
    "INCLINATION": 73.9494,
    "RA_OF_ASC_NODE": 275.6857,
    "ARG_OF_PERICENTER": 113.526,
    "MEAN_ANOMALY": 246.8388,
    "EPHEMERIS_TYPE": 0,
    "CLASSIFICATION_TYPE": "U",
    "NORAD_CAT_ID": 37085,
    "ELEMENT_SET_NO": 999,
    "REV_AT_EPOCH": 66714,
    "BSTAR": 0.0023967874,
    "MEAN_MOTION_DOT": 0.00084631,
    "MEAN_MOTION_DDOT": 0
},{
    "OBJECT_NAME": "COSMOS 2251 DEB",
    "OBJECT_ID": "1993-036BFK",
    "EPOCH": "2025-11-17T21:43:25.201056",
    "MEAN_MOTION": 14.52333621,
    "ECCENTRICITY": 0.01369327,
    "INCLINATION": 74.0368,
    "RA_OF_ASC_NODE": 192.5887,
    "ARG_OF_PERICENTER": 298.1309,
    "MEAN_ANOMALY": 60.607,
    "EPHEMERIS_TYPE": 0,
    "CLASSIFICATION_TYPE": "U",
    "NORAD_CAT_ID": 37089,
    "ELEMENT_SET_NO": 999,
    "REV_AT_EPOCH": 65749,
    "BSTAR": 0.0022727973,
    "MEAN_MOTION_DOT": 0.00010441,
    "MEAN_MOTION_DDOT": 0
},{
    "OBJECT_NAME": "COSMOS 2251 DEB",
    "OBJECT_ID": "1993-036BFQ",
    "EPOCH": "2025-11-17T06:37:56.101728",
    "MEAN_MOTION": 14.3763117,
    "ECCENTRICITY": 0.00847175,
    "INCLINATION": 74.1097,
    "RA_OF_ASC_NODE": 167.8379,
    "ARG_OF_PERICENTER": 140.8797,
    "MEAN_ANOMALY": 219.8525,
    "EPHEMERIS_TYPE": 0,
    "CLASSIFICATION_TYPE": "U",
    "NORAD_CAT_ID": 37094,
    "ELEMENT_SET_NO": 999,
    "REV_AT_EPOCH": 84140,
    "BSTAR": 0.0013363621,
    "MEAN_MOTION_DOT": 4.159e-5,
    "MEAN_MOTION_DDOT": 0
},{
    "OBJECT_NAME": "COSMOS 2251 DEB",
    "OBJECT_ID": "1993-036BFR",
    "EPOCH": "2025-11-19T00:26:46.754880",
    "MEAN_MOTION": 14.03234388,
    "ECCENTRICITY": 0.01978218,
    "INCLINATION": 73.8482,
    "RA_OF_ASC_NODE": 231.6864,
    "ARG_OF_PERICENTER": 293.3089,
    "MEAN_ANOMALY": 64.7336,
    "EPHEMERIS_TYPE": 0,
    "CLASSIFICATION_TYPE": "U",
    "NORAD_CAT_ID": 37095,
    "ELEMENT_SET_NO": 999,
    "REV_AT_EPOCH": 62303,
    "BSTAR": 0.0015422429,
    "MEAN_MOTION_DOT": 2.833e-5,
    "MEAN_MOTION_DDOT": 0
},{
    "OBJECT_NAME": "COSMOS 2251 DEB",
    "OBJECT_ID": "1993-036BGE",
    "EPOCH": "2025-11-21T20:30:01.235808",
    "MEAN_MOTION": 14.40996334,
    "ECCENTRICITY": 0.0093257,
    "INCLINATION": 74.0429,
    "RA_OF_ASC_NODE": 119.2131,
    "ARG_OF_PERICENTER": 200.4299,
    "MEAN_ANOMALY": 159.3118,
    "EPHEMERIS_TYPE": 0,
    "CLASSIFICATION_TYPE": "U",
    "NORAD_CAT_ID": 37108,
    "ELEMENT_SET_NO": 999,
    "REV_AT_EPOCH": 85206,
    "BSTAR": 0.0015597,
    "MEAN_MOTION_DOT": 5.255e-5,
    "MEAN_MOTION_DDOT": 0
},{
    "OBJECT_NAME": "COSMOS 2251 DEB",
    "OBJECT_ID": "1993-036BGY",
    "EPOCH": "2025-11-20T11:47:11.414976",
    "MEAN_MOTION": 14.72953653,
    "ECCENTRICITY": 0.01236272,
    "INCLINATION": 73.954,
    "RA_OF_ASC_NODE": 38.1097,
    "ARG_OF_PERICENTER": 281.0165,
    "MEAN_ANOMALY": 77.7122,
    "EPHEMERIS_TYPE": 0,
    "CLASSIFICATION_TYPE": "U",
    "NORAD_CAT_ID": 37126,
    "ELEMENT_SET_NO": 999,
    "REV_AT_EPOCH": 7771,
    "BSTAR": 0.00025435628,
    "MEAN_MOTION_DOT": 1.803e-5,
    "MEAN_MOTION_DDOT": 0
},{
    "OBJECT_NAME": "COSMOS 2251 DEB",
    "OBJECT_ID": "1993-036BHE",
    "EPOCH": "2025-11-19T14:26:40.155360",
    "MEAN_MOTION": 14.77312767,
    "ECCENTRICITY": 0.0038499,
    "INCLINATION": 74.0023,
    "RA_OF_ASC_NODE": 279.5325,
    "ARG_OF_PERICENTER": 81.5159,
    "MEAN_ANOMALY": 279.0376,
    "EPHEMERIS_TYPE": 0,
    "CLASSIFICATION_TYPE": "U",
    "NORAD_CAT_ID": 37132,
    "ELEMENT_SET_NO": 999,
    "REV_AT_EPOCH": 62074,
    "BSTAR": 0.0010736,
    "MEAN_MOTION_DOT": 7.692e-5,
    "MEAN_MOTION_DDOT": 0
},{
    "OBJECT_NAME": "COSMOS 2251 DEB",
    "OBJECT_ID": "1993-036BHJ",
    "EPOCH": "2025-11-21T04:05:09.893760",
    "MEAN_MOTION": 13.59552301,
    "ECCENTRICITY": 0.0397448,
    "INCLINATION": 73.9344,
    "RA_OF_ASC_NODE": 11.0772,
    "ARG_OF_PERICENTER": 27.0532,
    "MEAN_ANOMALY": 335.0694,
    "EPHEMERIS_TYPE": 0,
    "CLASSIFICATION_TYPE": "U",
    "NORAD_CAT_ID": 37270,
    "ELEMENT_SET_NO": 999,
    "REV_AT_EPOCH": 76776,
    "BSTAR": 0.0021277,
    "MEAN_MOTION_DOT": 2.633e-5,
    "MEAN_MOTION_DDOT": 0
},{
    "OBJECT_NAME": "COSMOS 2251 DEB",
    "OBJECT_ID": "1993-036BHU",
    "EPOCH": "2025-11-19T02:50:40.299072",
    "MEAN_MOTION": 14.19050682,
    "ECCENTRICITY": 0.01322389,
    "INCLINATION": 74.0307,
    "RA_OF_ASC_NODE": 99.286,
    "ARG_OF_PERICENTER": 232.5567,
    "MEAN_ANOMALY": 126.3487,
    "EPHEMERIS_TYPE": 0,
    "CLASSIFICATION_TYPE": "U",
    "NORAD_CAT_ID": 37280,
    "ELEMENT_SET_NO": 999,
    "REV_AT_EPOCH": 56988,
    "BSTAR": 0.0018546904,
    "MEAN_MOTION_DOT": 4.203e-5,
    "MEAN_MOTION_DDOT": 0
},{
    "OBJECT_NAME": "COSMOS 2251 DEB",
    "OBJECT_ID": "1993-036BHY",
    "EPOCH": "2025-11-18T22:36:42.561792",
    "MEAN_MOTION": 14.12553514,
    "ECCENTRICITY": 0.01605759,
    "INCLINATION": 74.0161,
    "RA_OF_ASC_NODE": 198.8505,
    "ARG_OF_PERICENTER": 355.163,
    "MEAN_ANOMALY": 23.2413,
    "EPHEMERIS_TYPE": 0,
    "CLASSIFICATION_TYPE": "U",
    "NORAD_CAT_ID": 37284,
    "ELEMENT_SET_NO": 999,
    "REV_AT_EPOCH": 58839,
    "BSTAR": 0.0015187141,
    "MEAN_MOTION_DOT": 3.149e-5,
    "MEAN_MOTION_DDOT": 0
},{
    "OBJECT_NAME": "COSMOS 2251 DEB",
    "OBJECT_ID": "1993-036BJK",
    "EPOCH": "2025-11-21T10:09:14.063616",
    "MEAN_MOTION": 14.65062901,
    "ECCENTRICITY": 0.0044216,
    "INCLINATION": 74.0071,
    "RA_OF_ASC_NODE": 322.7122,
    "ARG_OF_PERICENTER": 148.3319,
    "MEAN_ANOMALY": 212.0524,
    "EPHEMERIS_TYPE": 0,
    "CLASSIFICATION_TYPE": "U",
    "NORAD_CAT_ID": 37295,
    "ELEMENT_SET_NO": 999,
    "REV_AT_EPOCH": 81992,
    "BSTAR": 0.00048149,
    "MEAN_MOTION_DOT": 2.59e-5,
    "MEAN_MOTION_DDOT": 0
},{
    "OBJECT_NAME": "COSMOS 2251 DEB",
    "OBJECT_ID": "1993-036BJV",
    "EPOCH": "2025-11-19T07:00:53.471520",
    "MEAN_MOTION": 14.36000474,
    "ECCENTRICITY": 0.00507032,
    "INCLINATION": 73.8693,
    "RA_OF_ASC_NODE": 334.0077,
    "ARG_OF_PERICENTER": 297.6785,
    "MEAN_ANOMALY": 61.9226,
    "EPHEMERIS_TYPE": 0,
    "CLASSIFICATION_TYPE": "U",
    "NORAD_CAT_ID": 37305,
    "ELEMENT_SET_NO": 999,
    "REV_AT_EPOCH": 66530,
    "BSTAR": 0.00076754118,
    "MEAN_MOTION_DOT": 2.236e-5,
    "MEAN_MOTION_DDOT": 0
},{
    "OBJECT_NAME": "COSMOS 2251 DEB",
    "OBJECT_ID": "1993-036BKC",
    "EPOCH": "2025-11-21T10:51:40.955040",
    "MEAN_MOTION": 14.46024815,
    "ECCENTRICITY": 0.0017798,
    "INCLINATION": 74.0327,
    "RA_OF_ASC_NODE": 243.9091,
    "ARG_OF_PERICENTER": 349.535,
    "MEAN_ANOMALY": 10.5435,
    "EPHEMERIS_TYPE": 0,
    "CLASSIFICATION_TYPE": "U",
    "NORAD_CAT_ID": 37312,
    "ELEMENT_SET_NO": 999,
    "REV_AT_EPOCH": 85856,
    "BSTAR": 0.00055219,
    "MEAN_MOTION_DOT": 1.945e-5,
    "MEAN_MOTION_DDOT": 0
},{
    "OBJECT_NAME": "COSMOS 2251 DEB",
    "OBJECT_ID": "1993-036BKG",
    "EPOCH": "2025-11-20T13:18:07.717536",
    "MEAN_MOTION": 14.9299176,
    "ECCENTRICITY": 0.00311753,
    "INCLINATION": 74.0201,
    "RA_OF_ASC_NODE": 65.7675,
    "ARG_OF_PERICENTER": 144.8253,
    "MEAN_ANOMALY": 215.4997,
    "EPHEMERIS_TYPE": 0,
    "CLASSIFICATION_TYPE": "U",
    "NORAD_CAT_ID": 37316,
    "ELEMENT_SET_NO": 999,
    "REV_AT_EPOCH": 85812,
    "BSTAR": 0.0025444407,
    "MEAN_MOTION_DOT": 0.00026764,
    "MEAN_MOTION_DDOT": 0
},{
    "OBJECT_NAME": "COSMOS 2251 DEB",
    "OBJECT_ID": "1993-036BKL",
    "EPOCH": "2025-11-21T04:20:19.042080",
    "MEAN_MOTION": 14.78352002,
    "ECCENTRICITY": 0.0046902,
    "INCLINATION": 74.0471,
    "RA_OF_ASC_NODE": 260.5046,
    "ARG_OF_PERICENTER": 351.9585,
    "MEAN_ANOMALY": 8.0833,
    "EPHEMERIS_TYPE": 0,
    "CLASSIFICATION_TYPE": "U",
    "NORAD_CAT_ID": 37320,
    "ELEMENT_SET_NO": 999,
    "REV_AT_EPOCH": 65828,
    "BSTAR": 0.0013361,
    "MEAN_MOTION_DOT": 9.882e-5,
    "MEAN_MOTION_DDOT": 0
},{
    "OBJECT_NAME": "COSMOS 2251 DEB",
    "OBJECT_ID": "1993-036BKS",
    "EPOCH": "2025-11-11T13:55:18.070464",
    "MEAN_MOTION": 14.61338542,
    "ECCENTRICITY": 0.00564416,
    "INCLINATION": 74.0272,
    "RA_OF_ASC_NODE": 34.3334,
    "ARG_OF_PERICENTER": 172.1795,
    "MEAN_ANOMALY": 188.0266,
    "EPHEMERIS_TYPE": 0,
    "CLASSIFICATION_TYPE": "U",
    "NORAD_CAT_ID": 37326,
    "ELEMENT_SET_NO": 999,
    "REV_AT_EPOCH": 85028,
    "BSTAR": 0.001047584,
    "MEAN_MOTION_DOT": 5.268e-5,
    "MEAN_MOTION_DDOT": 0
}]
